TELSTAR 12V             
1 41036U 15068A   26027.78025550  .00000000  00000+0  00000+0 0  9991
2 41036   0.0277  72.8038 0002746 237.5818  82.5677  1.00270434 37212
ELEKTRO-L 2             
1 41105U 15074A   26027.85166925 -.00000115  00000+0  00000+0 0  9993
2 41105   6.3386  72.2677 0003750 220.3689 126.5683  1.00272094 37090
COSMOS 2513             
1 41121U 15075A   26027.15724086 -.00000128  00000+0  00000+0 0  9997
2 41121   0.0515 105.2834 0003135 184.6757 333.3271  1.00270843 37136
EXPRESS-AMU1            
1 41191U 15082A   26027.77365862  .00000163  00000+0  00000+0 0  9991
2 41191   0.0193  83.8835 0002717 202.7874 154.9752  1.00273160 36858
GAOFEN-4                
1 41194U 15083A   26027.01961341 -.00000324  00000+0  00000+0 0  9996
2 41194   0.2836  83.5051 0003521  90.4079  65.1022  1.00274341 37112
BELINTERSAT-1           
1 41238U 16001A   26027.79342889  .00000114  00000+0  00000+0 0  9997
2 41238   0.0347 262.6832 0001091  32.8497 168.6620  1.00274214 36837
IRNSS-1E                
1 41241U 16003A   26027.51997050 -.00000310  00000+0  00000+0 0  9998
2 41241  32.9257  61.7821 0019292 189.9994 173.9389  1.00277640 36678
EUTELSAT 9B             
1 41310U 16005A   26027.78502218  .00000069  00000+0  00000+0 0  9994
2 41310   0.0232  55.7148 0004794 240.4385 122.4713  1.00270610 36701
SES-9                   
1 41380U 16013A   26027.59069088 -.00000336  00000+0  00000+0 0  9990
2 41380   0.0362 281.7578 0000816  86.2170  79.8119  1.00270335 36034
EUTELSAT 65 WEST A      
1 41382U 16014A   26027.77020211 -.00000268  00000+0  00000+0 0  9992
2 41382   0.0691 310.9045 0002404 353.2221  34.9688  1.00269224 36122
IRNSS-1F                
1 41384U 16015A   26027.77051876  .00000161  00000+0  00000+0 0  9997
2 41384   4.9962 100.1602 0020610 185.7753 150.9418  1.00266523 36256
BEIDOU-2 IGSO-6         
1 41434U 16021A   26020.02719801 -.00000117  00000+0  00000+0 0  9992
2 41434  60.0199  39.5122 0060780 231.8072 312.6832  1.00286453 35999
IRNSS-1G                
1 41469U 16027A   26027.75614270 -.00000332  00000+0  00000+0 0  9996
2 41469   4.8475 100.9252 0004189 325.4341 102.4305  1.00270740 35775
JCSAT-2B                
1 41471U 16028A   26027.53515369 -.00000157  00000+0  00000+0 0  9990
2 41471   0.0171  77.7875 0001157 224.2451 171.4011  1.00269553 35726
THAICOM 8               
1 41552U 16031A   26027.79880227 -.00000113  00000+0  00000+0 0  9992
2 41552   0.0459  33.2342 0004836 289.2408 170.6632  1.00268535 35315
INTELSAT 31 (IS-31)     
1 41581U 16035A   26027.62171773 -.00000142  00000+0  00000+0 0  9991
2 41581   0.0100 281.6338 0002209 299.3845  34.6083  1.00269461 35276
BEIDOU-2 G7             
1 41586U 16037A   26027.89924936 -.00000348  00000+0  00000+0 0  9992
2 41586   1.8674  68.2337 0005549   3.9406 129.2367  1.00274314  5485
ABS-2A (MONGOLSAT-1)    
1 41588U 16038A   26027.79802226  .00000000  00000+0  00000+0 0  9995
2 41588   0.0191  50.6261 0001868 206.9169 231.5334  1.00268630 35303
EUTELSAT 117 WEST B     
1 41589U 16038B   26027.68874068 -.00000003  00000+0  00000+0 0  9991
2 41589   0.0015  47.1686 0000129  83.4688 127.2679  1.00269293 35257
BRISAT                  
1 41591U 16039A   26027.59628046 -.00000188  00000+0  00000+0 0  9992
2 41591   0.0091  49.3294 0002230 255.1948 187.4929  1.00270387 35202
ECHOSTAR 18             
1 41592U 16039B   26027.77106879 -.00000274  00000+0  00000+0 0  9994
2 41592   0.0186  76.9388 0001666 221.2528  45.0551  1.00270776 35211
MUOS-5                  
1 41622U 16041A   26027.62015772 -.00000111  00000+0  00000+0 0  9996
2 41622   2.5107 299.2980 0197325 263.1084  42.7425  1.00271962 35675
TIANTONG-1 1            
1 41725U 16048A   26027.87463604 -.00000312  00000+0  00000+0 0  9998
2 41725   3.5829  42.0441 0004295 331.3710 169.9965  1.00269152 34863
JCSAT-16                
1 41729U 16050A   26027.81180235 -.00000244  00000+0  00000+0 0  9999
2 41729   0.0187  74.7131 0001187 234.2783 254.2666  1.00269810 34667
USA 270                 
1 41744U 16052A   26027.40253189 -.00000079  00000+0  00000+0 0  9998
2 41744   3.8364  79.0182 0002766 276.3301  77.8935  1.00326527 26717
USA 271                 
1 41745U 16052B   26027.81119568 -.00000290  00000+0  00000+0 0  9991
2 41745   3.8096  79.0768 0000869 332.2452 148.7285  1.00130135 26513
INTELSAT 36 (IS-36)     
1 41747U 16053A   26027.79680892 -.00000016  00000+0  00000+0 0  9990
2 41747   0.0093  39.3236 0001403 268.9178 174.1561  1.00269824 34545
INSAT-3DR               
1 41752U 16054A   26027.79784892 -.00000069  00000+0  00000+0 0  9990
2 41752   0.0292  94.1917 0014205 182.7115 211.3887  1.00270508 34417
GSAT-18                 
1 41793U 16060A   26027.79793558 -.00000069  00000+0  00000+0 0  9991
2 41793   0.0338 249.7745 0001889 117.1991 121.3481  1.00271572 34128
SKY MUSTER 2 (NBN1B)    
1 41794U 16060B   26027.46030272 -.00000235  00000+0  00000+0 0  9998
2 41794   0.0099   6.6565 0001687 292.3975 138.1642  1.00271606 34108
HIMAWARI-9              
1 41836U 16064A   26027.81110901 -.00000267  00000+0  00000+0 0  9991
2 41836   0.0366 240.9648 0001048 101.7796 217.0805  1.00271315 33803
SHIJIAN-17 (SJ-17)      
1 41838U 16065A   26027.84567810 -.00000078  00000+0  00000+0 0  9992
2 41838   5.3947  74.3101 0000773 209.8570 231.2426  0.99851114 33800
GOES 16                 
1 41866U 16071A   26027.69116737 -.00000083  00000+0  00000+0 0  9997
2 41866   0.1325  95.1747 0003207 189.2790 346.6167  1.00270969 33697
TIANLIAN 1-04           
1 41869U 16072A   26027.81830238  .00000037  00000+0  00000+0 0  9992
2 41869   0.5048  83.5767 0042506  96.5412  58.3098  1.00270558 33891
WGS F8 (USA 272)        
1 41879U 16075A   26027.37623141 -.00000193  00000+0  00000+0 0  9994
2 41879   0.0167  49.5163 0000492 284.9892  77.3810  1.00270995 33409
FENGYUN 4A              
1 41882U 16077A   26027.87905606 -.00000352  00000+0  00000+0 0  9991
2 41882   1.9635  81.9063 0005349 136.8464 348.4046  1.00262072 33521
ECHOSTAR 19             
1 41893U 16079A   26027.62137106 -.00000130  00000+0  00000+0 0  9994
2 41893   0.0167  75.7056 0001442 218.2632 319.4958  1.00268803 33290
JCSAT-110A (JCSAT-15)   
1 41903U 16082A   26027.37714307 -.00000341  00000+0  00000+0 0  9990
2 41903   0.0160  80.5823 0000778 231.4114  60.4748  1.00269017 33348
STAR ONE D1             
1 41904U 16082B   26027.57475413 -.00000203  00000+0  00000+0 0  9992
2 41904   0.0164  49.8227 0002826 271.1504 288.7943  1.00280172 33368
TJS-2                   
1 41911U 17001A   26027.89604601  .00000000  00000+0  00000+0 0  9994
2 41911   0.4685  87.6361 0002376 218.7759 209.8764  1.00272137 33318
SBIRS GEO-4 (USA 273)   
1 41937U 17004A   26027.35911631  .00000131  00000+0  00000+0 0  9995
2 41937   1.9833  38.7563 0002466 263.7326 334.3150  1.00271540 33183
HISPASAT 36W-1          
1 41942U 17006A   26027.41943663 -.00000236  00000+0  00000+0 0  9997
2 41942   0.0312 265.8344 0000908  36.1805 299.6647  1.00269669 32838
TELKOM 3S               
1 41944U 17007A   26027.30737602 -.00000353  00000+0  00000+0 0  9992
2 41944   0.0246  89.0839 0002453 217.1116  49.0321  1.00270259 32725
INTELSAT 32E (IS-32E)   
1 41945U 17007B   26027.77470881 -.00000261  00000+0  00000+0 0  9995
2 41945   0.0148  82.8867 0000729 267.2449  12.6167  1.00268996 32817
ECHOSTAR 23             
1 42070U 17014A   26027.61877107 -.00000049  00000+0  00000+0 0  9992
2 42070   0.0187  75.1195 0002020 231.3534 293.2598  1.00270281 32514
WGS F9 (USA 275)        
1 42075U 17016A   26027.35287626  .00000000  00000+0  00000+0 0  9997
2 42075   0.0143  56.7220 0000453 247.4769 297.4931  1.00266428 32482
SES-10                  
1 42432U 17017A   26027.76985544 -.00000265  00000+0  00000+0 0  9998
2 42432   0.0131  46.6783 0003036 268.5227  22.0726  1.00268532 32337
CHINASAT 16 (SJ-13)     
1 42662U 17018A   26023.73970809 -.00000337  00000+0  00000+0 0  9995
2 42662   0.0444  89.9000 0007256 168.5827 241.4125  1.00273966 32308
KOREASAT 7              
1 42691U 17023A   26027.78899804 -.00000354  00000+0  00000+0 0  9996
2 42691   0.0300 335.6113 0001318 358.5725 192.7829  1.00269176 31966
SGDC                    
1 42692U 17023B   26026.85744220 -.00000238  00000+0  00000+0 0  9996
2 42692   0.0175  75.8521 0003098 237.7631  46.3420  1.00271398 31997
GSAT-9                  
1 42695U 17024A   26027.82996479 -.00000278  00000+0  00000+0 0  9997
2 42695   0.0091 105.4225 0002046 214.6581 203.0489  1.00267810 31898
INMARSAT 5-F4           
1 42698U 17025A   26027.20650240  .00000085  00000+0  00000+0 0  9991
2 42698   0.0172  70.3557 0000347 231.2461 315.7433  1.00269560 31864
SES-15                  
1 42709U 17026A   26027.68631401  .00000068  00000+0  00000+0 0  9996
2 42709   0.0272 328.3704 0000744 333.1768 303.2867  1.00269194  6027
QZS-2 (MICHIBIKI-2)     
1 42738U 17028A   26026.45470500 -.00000073  00000+0  00000+0 0  9992
2 42738  39.6446 245.2226 0750517 269.9633 276.7134  1.00271473  6207
VIASAT-2                
1 42740U 17029A   26027.56919626 -.00000257  00000+0  00000+0 0  9990
2 42740   0.0179 310.5070 0000048 290.6594  20.6813  1.00271696 31791
EUTELSAT 172B           
1 42741U 17029B   26027.44239146  .00000003  00000+0  00000+0 0  9998
2 42741   0.0273 123.3748 0000243 134.0592 200.5225  1.00271088 32326
GSAT-19                 
1 42747U 17031A   26027.50740377  .00000134  00000+0  00000+0 0  9992
2 42747   0.0519  91.4950 0001911 249.4541  16.3654  1.00271703 31730
ECHOSTAR 21             
1 42749U 17032A   26027.57127745  .00000077  00000+0  00000+0 0  9996
2 42749   1.8089 346.5192 0002671 322.5046  33.7403  1.00273174 31685
BULGARIASAT-1           
1 42801U 17038A   26027.64095786  .00000019  00000+0  00000+0 0  9994
2 42801   0.0160  83.3178 0003029 235.4228  40.7993  1.00273254 31420
HELLAS-SAT 3            
1 42814U 17040A   26027.79100222  .00000160  00000+0  00000+0 0  9996
2 42814   0.0513  45.5194 0004508 291.3251 113.9461  1.00270742 31404
